[{"OBJECT_NAME":"SAOCOM 1B","OBJECT_ID":"2020-059A","EPOCH":"2026-03-06T22:57:01.124064","MEAN_MOTION":14.82173062,"ECCENTRICITY":0.00015046,"INCLINATION":97.8885,"RA_OF_ASC_NODE":253.2654,"ARG_OF_PERICENTER":81.2285,"MEAN_ANOMALY":278.9098,"EPHEMERIS_TYPE":0,"CLASSIFICATION_TYPE":"U","NORAD_CAT_ID":46265,"ELEMENT_SET_NO":999,"REV_AT_EPOCH":29834,"BSTAR":0.00017595012,"MEAN_MOTION_DOT":1.349e-5,"MEAN_MOTION_DDOT":0},{"OBJECT_NAME":"YAOGAN-2 DEB","OBJECT_ID":"2007-019B","EPOCH":"2026-03-08T05:47:08.337408","MEAN_MOTION":14.49634288,"ECCENTRICITY":0.01490404,"INCLINATION":97.8479,"RA_OF_ASC_NODE":344.7754,"ARG_OF_PERICENTER":287.9032,"MEAN_ANOMALY":226.1138,"EPHEMERIS_TYPE":0,"CLASSIFICATION_TYPE":"U","NORAD_CAT_ID":38262,"ELEMENT_SET_NO":999,"REV_AT_EPOCH":95683,"BSTAR":0.0012384816,"MEAN_MOTION_DOT":5.442e-5,"MEAN_MOTION_DDOT":0}]
